NORAD_CAT_ID,OBJECT_NAME,OBJECT_TYPE,EPOCH,MEAN_MOTION,ECCENTRICITY,INCLINATION,RA_OF_ASC_NODE,ARG_OF_PERICENTER,MEAN_ANOMALY,BSTAR,MEAN_MOTION_DOT,MEAN_MOTION_DDOT,TLE_LINE0,TLE_LINE1,TLE_LINE2,SEMIMAJOR_AXIS,PERIOD,APOGEE,PERIGEE,DECAYED
51740.0,STARLINK-3500,PAYLOAD,2024-01-20 21:52:57,15.08836022,0.0001397,53.2157,215.1928,93.7815,266.3337,2.7337e-05,1.47e-06,0.0,0 STARLINK-3500,1 51740U 22016AC  24020.91177103  .00000147  00000-0  27337-4 0  9993,2 51740  53.2157 215.1928 0001397  93.7815 266.3337 15.08836022105992,6917.893,95.438,540.724,538.791,0.0
51740.0,STARLINK-3500,PAYLOAD,2024-01-20 23:28:20,15.0883641,0.0001385,53.2155,214.8949,92.9209,267.1942,2.8982e-05,1.73e-06,0.0,0 STARLINK-3500,1 51740U 22016AC  24020.97801079  .00000173  00000-0  28982-4 0  9991,2 51740  53.2155 214.8949 0001385  92.9209 267.1942 15.08836410107066,6917.891,95.438,540.714,538.798,0.0
51740.0,STARLINK-3500,PAYLOAD,2024-01-21 21:43:43,15.08843891,0.0001384,53.2156,210.7319,87.9784,272.1367,0.0001281,1.752e-05,0.0,0 STARLINK-3500,1 51740U 22016AC  24021.90536446  .00001752  00000-0  12810-3 0  9994,2 51740  53.2156 210.7319 0001384  87.9784 272.1367 15.08843891106140,6917.868,95.437,540.691,538.776,0.0
51740.0,STARLINK-3500,PAYLOAD,2024-01-22 12:02:12,15.08841059,0.0001407,53.2159,208.056,83.7065,276.4087,9.5625e-05,1.234e-05,0.0,0 STARLINK-3500,1 51740U 22016AC  24022.50152886  .00001234  00000-0  95625-4 0  9994,2 51740  53.2159 208.0560 0001407  83.7065 276.4087 15.08841059107290,6917.877,95.437,540.715,538.769,0.0
51740.0,STARLINK-3500,PAYLOAD,2024-01-22 19:59:07,15.08842299,0.0001391,53.2159,206.5691,83.3294,276.7857,9.6514e-05,1.249e-05,0.0,0 STARLINK-3500,1 51740U 22016AC  24022.83272803  .00001249  00000-0  96514-4 0  9996,2 51740  53.2159 206.5691 0001391  83.3294 276.7857 15.08842299106283,6917.873,95.437,540.701,538.776,0.0
51740.0,STARLINK-3500,PAYLOAD,2024-01-23 03:56:03,15.08841381,0.0001326,53.215,205.0811,85.3932,274.7212,7.8877e-05,9.68e-06,0.0,0 STARLINK-3500,1 51740U 22016AC  24023.16392782  .00000968  00000-0  78877-4 0  9991,2 51740  53.2150 205.0811 0001326  85.3932 274.7212 15.08841381106331,6917.876,95.437,540.658,538.824,0.0
51740.0,STARLINK-3500,PAYLOAD,2024-01-23 16:39:07,15.08849767,0.0001377,53.215,202.7021,83.7038,276.4111,8.1101e-05,1.003e-05,0.0,0 STARLINK-3500,1 51740U 22016AC  24023.69384243  .00001003  00000-0  81101-4 0  9997,2 51740  53.2150 202.7021 0001377  83.7038 276.4111 15.08849767107472,6917.851,95.437,540.668,538.763,0.0
51740.0,STARLINK-3500,PAYLOAD,2024-01-23 21:25:17,15.08851748,0.0001348,53.2153,201.8095,86.9563,273.1584,8.5065e-05,1.067e-05,0.0,0 STARLINK-3500,1 51740U 22016AC  24023.89255903  .00001067  00000-0  85065-4 0  9992,2 51740  53.2153 201.8095 0001348  86.9563 273.1584 15.08851748106448,6917.844,95.437,540.642,538.777,0.0
51740.0,STARLINK-3500,PAYLOAD,2024-01-24 02:11:27,15.08837312,0.0001504,53.2153,200.9174,79.9826,280.1336,-2.103e-05,-6.23e-06,0.0,0 STARLINK-3500,1 51740U 22016AC  24024.09129028 -.00000623  00000-0 -21030-4 0  9994,2 51740  53.2153 200.9174 0001504  79.9826 280.1336 15.08837312107539,6917.889,95.438,540.794,538.713,0.0
51740.0,STARLINK-3500,PAYLOAD,2024-01-24 14:54:32,15.08843579,0.000139,53.2153,198.5382,91.1493,268.9659,5.636e-05,6.09e-06,0.0,0 STARLINK-3500,1 51740U 22016AC  24024.62120618  .00000609  00000-0  56360-4 0  9995,2 51740  53.2153 198.5382 0001390  91.1493 268.9659 15.08843579106556,6917.869,95.437,540.696,538.773,0.0
51740.0,STARLINK-3500,PAYLOAD,2024-01-24 19:40:41,15.0884486,0.0001356,53.2142,197.6464,86.8285,273.2863,9.426e-05,1.213e-05,0.0,0 STARLINK-3500,1 51740U 22016AC  24024.81992466  .00001213  00000-0  94260-4 0  9997,2 51740  53.2142 197.6464 0001356  86.8285 273.2863 15.08844860107648,6917.866,95.437,540.669,538.792,0.0
51740.0,STARLINK-3500,PAYLOAD,2024-01-24 21:16:04,15.08845831,0.0001351,53.2142,197.349,86.6534,273.4613,0.00010784,1.429e-05,0.0,0 STARLINK-3500,1 51740U 22016AC  24024.88616393  .00001429  00000-0  10784-3 0  9993,2 51740  53.2142 197.3490 0001351  86.6534 273.4613 15.08845831106591,6917.863,95.437,540.662,538.793,0.0
51740.0,STARLINK-3500,PAYLOAD,2024-01-25 14:45:19,15.08836433,0.0001381,53.2144,194.078,90.351,269.764,1.5406e-05,-4.3e-07,0.0,0 STARLINK-3500,1 51740U 22016AC  24025.61480985 -.00000043  00000-0  15406-4 0  9990,2 51740  53.2144 194.0780 0001381  90.3510 269.7640 15.08836433106707,6917.891,95.438,540.712,538.801,0.0
51740.0,STARLINK-3500,PAYLOAD,2024-01-25 17:56:05,15.08839189,0.0001394,53.2144,193.4829,90.8147,269.3005,4.4159e-05,4.15e-06,0.0,0 STARLINK-3500,1 51740U 22016AC  24025.74728878  .00000415  00000-0  44159-4 0  9999,2 51740  53.2144 193.4829 0001394  90.8147 269.3005 15.08839189107780,6917.883,95.438,540.712,538.784,0.0
51740.0,STARLINK-3500,PAYLOAD,2024-01-26 14:36:06,15.08843072,0.0001317,53.2146,189.6169,91.1622,268.9521,0.00017341,2.473e-05,0.0,0 STARLINK-3500,1 51740U 22016AC  24026.60840729  .00002473  00000-0  17341-3 0  9993,2 51740  53.2146 189.6169 0001317  91.1622 268.9521 15.08843072106854,6917.871,95.437,540.647,538.825,0.0
51740.0,STARLINK-3500,PAYLOAD,2024-01-27 09:40:47,15.08792501,0.000159,53.215,186.0475,109.9414,250.1749,0.0016842,0.00026583,0.0,0 STARLINK-3500,1 51740U 22016AC  24027.40332528  .00026583  00000-0  16842-2 0  9997,2 51740  53.2150 186.0475 0001590 109.9414 250.1749 15.08792501108037,6918.026,95.441,540.991,538.791,0.0
51740.0,STARLINK-3500,PAYLOAD,2024-01-27 14:26:53,15.08841645,0.0001286,53.2147,185.1565,90.7605,269.3535,0.00011167,1.49e-05,0.0,0 STARLINK-3500,1 51740U 22016AC  24027.60200795  .00001490  00000-0  11167-3 0  9995,2 51740  53.2147 185.1565 0001286  90.7605 269.3535 15.08841645107009,6917.875,95.437,540.63,538.851,0.0
51740.0,STARLINK-3500,PAYLOAD,2024-01-27 19:13:02,15.08844489,0.0001298,53.2151,184.2643,84.8063,275.3077,0.00013513,1.864e-05,0.0,0 STARLINK-3500,1 51740U 22016AC  24027.80072644  .00001864  00000-0  13513-3 0  9999,2 51740  53.2151 184.2643 0001298  84.8063 275.3077 15.08844489108093,6917.867,95.437,540.63,538.834,0.0
51740.0,STARLINK-3500,PAYLOAD,2024-01-28 14:17:40,15.08834797,0.0001387,53.2171,180.699,89.612,270.5031,-0.00011015,-2.04e-05,0.0,0 STARLINK-3500,1 51740U 22016AC  24028.59561319 -.00002040  00000-0 -11015-3 0  9992,2 51740  53.2171 180.6990 0001387  89.6120 270.5031 15.08834797107150,6917.896,95.438,540.721,538.802,0.0
51740.0,STARLINK-3500,PAYLOAD,2024-01-28 19:03:50,15.08838185,0.0001328,53.2175,179.8069,84.6705,275.4438,1.7291e-05,-1.3e-07,0.0,0 STARLINK-3500,1 51740U 22016AC  24028.79433624 -.00000013  00000-0  17291-4 0  9991,2 51740  53.2175 179.8069 0001328  84.6705 275.4438 15.08838185108241,6917.886,95.438,540.67,538.832,0.0
51740.0,STARLINK-3500,PAYLOAD,2024-01-29 09:22:18,15.08841191,0.0001389,53.2176,177.1298,78.8225,281.2923,7.9276e-05,9.74e-06,0.0,0 STARLINK-3500,1 51740U 22016AC  24029.39049425  .00000974  00000-0  79276-4 0  9996,2 51740  53.2176 177.1298 0001389  78.8225 281.2923 15.08841191107273,6917.877,95.437,540.703,538.781,0.0
51740.0,STARLINK-3500,PAYLOAD,2024-01-30 09:13:05,15.08841968,0.000106,53.216,172.6675,89.7642,270.3472,0.00011907,1.608e-05,0.0,0 STARLINK-3500,1 51740U 22016AC  24030.38409294  .00001608  00000-0  11907-3 0  9992,2 51740  53.2160 172.6675 0001060  89.7642 270.3472 15.08841968108489,6917.874,95.437,540.473,539.006,0.0
51740.0,STARLINK-3500,PAYLOAD,2024-01-30 13:59:15,15.08842309,0.0001076,53.2161,171.7751,88.9158,271.1957,0.00011812,1.593e-05,0.0,0 STARLINK-3500,1 51740U 22016AC  24030.58281298  .00001593  00000-0  11812-3 0  9994,2 51740  53.2161 171.7751 0001076  88.9158 271.1957 15.08842309107458,6917.873,95.437,540.483,538.994,0.0
51740.0,STARLINK-3500,PAYLOAD,2024-01-30 15:34:38,15.08843447,0.0001143,53.2162,171.4777,84.1104,276.0018,0.00012932,1.771e-05,0.0,0 STARLINK-3500,1 51740U 22016AC  24030.64905239  .00001771  00000-0  12932-3 0  9991,2 51740  53.2162 171.4777 0001143  84.1104 276.0018 15.08843447107465,6917.87,95.437,540.526,538.944,0.0
51740.0,STARLINK-3500,PAYLOAD,2024-01-31 12:14:39,15.08840734,0.0001324,53.217,167.613,97.582,262.5323,5.3425e-05,5.62e-06,0.0,0 STARLINK-3500,1 51740U 22016AC  24031.51017568  .00000562  00000-0  53425-4 0  9997,2 51740  53.2170 167.6130 0001324  97.5820 262.5323 15.08840734108655,6917.878,95.438,540.659,538.827,0.0
51740.0,STARLINK-3500,PAYLOAD,2024-01-31 18:36:11,15.08845001,0.0001455,53.2175,166.4233,98.8578,261.2579,8.0395e-05,9.92e-06,0.0,0 STARLINK-3500,1 51740U 22016AC  24031.77513189  .00000992  00000-0  80395-4 0  9998,2 51740  53.2175 166.4233 0001455  98.8578 261.2579 15.08845001107638,6917.865,95.437,540.737,538.724,0.0
51740.0,STARLINK-3500,PAYLOAD,2024-02-01 12:05:27,15.08760722,0.000188,53.2173,163.1472,106.9239,253.1959,0.0011165,0.00017487,0.0,0 STARLINK-3500,1 51740U 22016AC  24032.50379441  .00017487  00000-0  11165-2 0  9995,2 51740  53.2173 163.1472 0001880 106.9239 253.1959 15.08760722108800,6918.123,95.443,541.288,538.687,0.0
51740.0,STARLINK-3500,PAYLOAD,2024-02-02 11:56:12,15.08842288,0.0001775,53.2155,158.6881,119.1251,240.9919,0.00010253,1.344e-05,0.0,0 STARLINK-3500,1 51740U 22016AC  24033.49737229  .00001344  00000-0  10253-3 0  9999,2 51740  53.2155 158.6881 0001775 119.1251 240.9919 15.08842288108950,6917.873,95.437,540.966,538.51,0.0
51740.0,STARLINK-3500,PAYLOAD,2024-02-02 13:31:36,15.08843848,0.0001693,53.2167,158.3911,113.8831,246.2338,0.00011075,1.475e-05,0.0,0 STARLINK-3500,1 51740U 22016AC  24033.56361160  .00001475  00000-0  11075-3 0  9992,2 51740  53.2167 158.3911 0001693 113.8831 246.2338 15.08843848107909,6917.869,95.437,540.905,538.562,0.0
51740.0,STARLINK-3500,PAYLOAD,2024-02-02 18:17:45,15.08844559,0.0001547,53.2174,157.4995,107.4541,252.662,0.00010353,1.36e-05,0.0,0 STARLINK-3500,1 51740U 22016AC  24033.76233153  .00001360  00000-0  10353-3 0  9995,2 51740  53.2174 157.4995 0001547 107.4541 252.6620 15.08844559107932,6917.866,95.437,540.802,538.661,0.0
